[{"OBJECT_NAME":"STARLINK-35896","OBJECT_ID":"2025-280D","EPOCH":"2026-03-09T21:21:08.123904","MEAN_MOTION":14.98331242,"ECCENTRICITY":0.00027046,"INCLINATION":70.0024,"RA_OF_ASC_NODE":334.0424,"ARG_OF_PERICENTER":274.2001,"MEAN_ANOMALY":85.8848,"EPHEMERIS_TYPE":0,"CLASSIFICATION_TYPE":"U","NORAD_CAT_ID":66824,"ELEMENT_SET_NO":999,"REV_AT_EPOCH":1610,"BSTAR":0.00032907249,"MEAN_MOTION_DOT":3.836e-5,"MEAN_MOTION_DDOT":0},{"OBJECT_NAME":"CZ-6A DEB","OBJECT_ID":"2022-151YE","EPOCH":"2026-03-09T18:13:38.556192","MEAN_MOTION":14.86736267,"ECCENTRICITY":0.00514965,"INCLINATION":98.6419,"RA_OF_ASC_NODE":137.7987,"ARG_OF_PERICENTER":211.6126,"MEAN_ANOMALY":148.1991,"EPHEMERIS_TYPE":0,"CLASSIFICATION_TYPE":"U","NORAD_CAT_ID":55532,"ELEMENT_SET_NO":999,"REV_AT_EPOCH":17090,"BSTAR":0.0037982535,"MEAN_MOTION_DOT":0.00034713,"MEAN_MOTION_DDOT":0}]
